     2.10           NAVIGATION DATA                         RINEX VERSION / TYPE
SPIDER V4,0,0,3554                      2015 03 16 00:14    PGM / RUN BY / DATE 
   1.5832D-08 -7.4506D-09 -5.9605D-08  5.9605D-08           ION ALPHA           
   1.2288D+05 -6.5536D+04 -1.3107D+05 -6.5536D+04           ION BETA            
   -1.862645149231D-09 4.440892098501D-15   147456     1832 DELTA-UTC: A0,A1,T,W
    16                                                      LEAP SECONDS        
                                                            END OF HEADER       
 4 15 02 13 03 59 44.0-7.109250873327D-06-5.684341886081D-13 0.000000000000D+00
    1.100000000000D+01-1.009375000000D+01 5.267362102046D-09-3.061220493150D-01
   -4.544854164124D-07 1.102943881415D-02 7.547438144684D-06 5.153726404190D+03
    4.463840000000D+05-3.166496753693D-08-6.904635838940D-02 1.098960638046D-07
    9.398392252419D-01 2.221250000000D+02 1.052238350454D+00-8.562857090055D-09
    1.850077036014D-10 1.000000000000D+00 1.831000000000D+03 0.000000000000D+00
    2.000000000000D+00 0.000000000000D+00-6.519258022308D-09 1.100000000000D+01
    4.463840000000D+05 0.000000000000D+00
11 15 02 13 04 00  0.0-5.575153045356D-04-2.614797267597D-12 0.000000000000D+00
    6.700000000000D+01-1.412500000000D+01 6.332406599086D-09-6.120259716926D-01
   -5.904585123062D-07 1.560349354986D-02 7.959082722664D-06 5.153724727631D+03
    4.464000000000D+05-1.750886440277D-07-3.922016983293D-01 1.098960638046D-07
    8.926468807027D-01 1.898125000000D+02 1.381968306104D+00-9.173239057247D-09
    2.475103177968D-10 1.000000000000D+00 1.831000000000D+03 0.000000000000D+00
    2.000000000000D+00 0.000000000000D+00-1.210719347000D-08 6.700000000000D+01
    4.464000000000D+05 0.000000000000D+00
32 15 02 13 04 00  0.0-2.249516546726D-04 9.094947017729D-12 0.000000000000D+00
    9.000000000000D+01-5.906250000000D+00 5.071282505043D-09-1.981251240210D-01
   -3.390014171600D-07 1.133994990960D-02 8.016824722290D-06 5.153572891235D+03
    4.464000000000D+05 1.955777406693D-07 1.074240047347D+00-3.166496753693D-08
    9.469889637886D-01 2.176250000000D+02 1.851631505027D-02-8.412850860395D-09
   -2.528676712465D-10 1.000000000000D+00 1.831000000000D+03 0.000000000000D+00
    2.000000000000D+00 0.000000000000D+00-3.725290298462D-09 9.000000000000D+01
    4.464000000000D+05 0.000000000000D+00
 1 15 02 13 03 59 44.0-9.072013199329D-06 4.547473508865D-13 0.000000000000D+00
    1.200000000000D+01-1.162500000000D+01 4.647336293573D-09-1.152489686279D-01
   -7.133930921555D-07 3.861450590193D-03 7.605180144310D-06 5.153668193817D+03
    4.463840000000D+05 3.911554813385D-08-4.914717174840D-02 2.048909664154D-08
    9.622063927185D-01 2.315625000000D+02 4.094489377975D-01-8.121767258729D-09
    1.414344613648D-10 1.000000000000D+00 1.831000000000D+03 0.000000000000D+00
    2.000000000000D+00 0.000000000000D+00 5.587935447693D-09 1.200000000000D+01
    4.463840000000D+05 0.000000000000D+00
14 15 02 13 04 00  0.0 8.791545405984D-05-3.524291969370D-12 0.000000000000D+00
    9.700000000000D+01 7.237500000000D+01 4.200889414108D-09 1.899927154586D+00
    3.777444362640D-06 7.735605118796D-03 9.858980774879D-06 5.153787990570D+03
    4.464000000000D+05-6.332993507385D-08 2.115111083987D+00-2.235174179077D-07
    9.673090451273D-01 1.894687500000D+02-1.970121340445D+00-7.861398643172D-09
    1.892935981573D-11 1.000000000000D+00 1.831000000000D+03 0.000000000000D+00
    2.000000000000D+00 0.000000000000D+00-9.313225746155D-09 9.700000000000D+01
    4.464000000000D+05 0.000000000000D+00
27 15 02 13 06 00  0.0 5.110073834658D-05 2.614797267597D-12 0.000000000000D+00
    5.900000000000D+01-5.587500000000D+01 4.394825836584D-09-3.066239813356D+00
   -2.834945917130D-06 1.964880037121D-03 9.713694453239D-06 5.153689573288D+03
    4.536000000000D+05-5.029141902924D-08-1.105699593009D+00 1.676380634308D-08
    9.660800447230D-01 1.944062500000D+02 1.335936014640D-01-7.912472455018D-09
    1.860791798425D-10 1.000000000000D+00 1.831000000000D+03 0.000000000000D+00
    2.000000000000D+00 0.000000000000D+00 1.862645149231D-09 5.900000000000D+01
    4.536000000000D+05 0.000000000000D+00
11 15 02 13 06 00  0.0-5.575343966484D-04-2.614797267597D-12 0.000000000000D+00
    8.400000000000D+01-1.750000000000D+01 6.383837458657D-09 4.381237867114D-01
   -7.264316082001D-07 1.560321636498D-02 8.098781108856D-06 5.153724147797D+03
    4.536000000000D+05-1.695007085800D-07-3.922676569167D-01 1.303851604462D-08
    8.926485996315D-01 1.900312500000D+02 1.381981807375D+00-9.182167914901D-09
    2.075086491526D-10 1.000000000000D+00 1.831000000000D+03 0.000000000000D+00
    2.000000000000D+00 0.000000000000D+00-1.210719347000D-08 8.400000000000D+01
    4.536000000000D+05 0.000000000000D+00
 1 15 02 13 06 00  0.0-9.068753570318D-06 4.547473508865D-13 0.000000000000D+00
    3.500000000000D+01-1.478125000000D+01 4.728053948355D-09 9.372839213632D-01
   -6.072223186493D-07 3.861013567075D-03 7.664784789085D-06 5.153667396545D+03
    4.536000000000D+05 3.911554813385D-08-4.920587572509D-02 5.587935447693D-08
    9.622073816511D-01 2.299375000000D+02 4.094357715347D-01-8.126766815053D-09
    1.592923432048D-10 1.000000000000D+00 1.831000000000D+03 0.000000000000D+00
    2.000000000000D+00 0.000000000000D+00 5.587935447693D-09 3.500000000000D+01
    4.536000000000D+05 0.000000000000D+00
 4 15 02 13 06 00  0.0-7.113441824913D-06-5.684341886081D-13 0.000000000000D+00
    1.200000000000D+01-1.178125000000D+01 5.280934356477D-09 7.463630793267D-01
   -4.973262548447D-07 1.102922973223D-02 7.618218660355D-06 5.153726016998D+03
    4.536000000000D+05-1.117587089539D-07-6.910762978732D-02 6.705522537231D-08
    9.398403677809D-01 2.225625000000D+02 1.052240989558D+00-8.531784168042D-09
    1.157191079071D-10 1.000000000000D+00 1.831000000000D+03 0.000000000000D+00
    2.000000000000D+00 0.000000000000D+00-6.519258022308D-09 1.200000000000D+01
    4.536000000000D+05 0.000000000000D+00
14 15 02 13 06 00  0.0 8.789030835032D-05-3.524291969370D-12 0.000000000000D+00
    9.800000000000D+01 7.146875000000D+01 4.049097057646D-09 2.949952423051D+00
    3.671273589134D-06 7.735527353361D-03 9.572133421898D-06 5.153788856506D+03
    4.536000000000D+05 5.215406417847D-08 2.115055842737D+00-2.607703208923D-08
    9.673097941413D-01 1.967812500000D+02-1.970039617452D+00-7.662104728468D-09
   -4.178745544037D-11 1.000000000000D+00 1.831000000000D+03 0.000000000000D+00
    2.000000000000D+00 0.000000000000D+00-9.313225746155D-09 9.800000000000D+01
    4.536000000000D+05 0.000000000000D+00
16 15 02 13 06 00  0.0-1.567611470819D-04 3.296918293927D-12 0.000000000000D+00
    8.300000000000D+01-6.021875000000D+01 4.043382517693D-09-2.224950165465D+00
   -3.300607204437D-06 8.057021768764D-03 5.871057510376D-06 5.153748294830D+03
    4.536000000000D+05 1.117587089539D-08-2.087030267588D+00-1.490116119385D-07
    9.897118346591D-01 2.830625000000D+02 2.391483357052D-01-7.956402647835D-09
   -4.107313794632D-11 1.000000000000D+00 1.831000000000D+03 0.000000000000D+00
    2.000000000000D+00 0.000000000000D+00-1.024454832077D-08 8.300000000000D+01
    4.536000000000D+05 0.000000000000D+00
18 15 02 13 06 00  0.0 3.792117349803D-04 2.728484105319D-12 0.000000000000D+00
    3.600000000000D+01-4.625000000000D+00 5.387367441045D-09-1.662111996608D+00
   -2.328306436539D-07 1.569972140715D-02 7.508322596550D-06 5.153753219604D+03
    4.536000000000D+05 4.135072231293D-07 9.743839554143D-01 1.136213541031D-07
    9.251665036184D-01 2.138437500000D+02-1.990066148186D+00-8.258201233957D-09
   -2.721541880746D-10 1.000000000000D+00 1.831000000000D+03 0.000000000000D+00
    2.000000000000D+00 0.000000000000D+00-1.117587089539D-08 3.600000000000D+01
    4.536000000000D+05 0.000000000000D+00
19 15 02 13 06 00  0.0-5.003614351153D-04-1.364242052659D-12 0.000000000000D+00
    1.200000000000D+01-5.662500000000D+01 4.315536816790D-09 2.324994826075D+00
   -2.929940819740D-06 1.092678902205D-02 9.620562195778D-06 5.153700233459D+03
    4.536000000000D+05-2.570450305939D-07-1.008566943982D+00-6.332993507385D-08
    9.683507656848D-01 1.993750000000D+02 5.176059794752D-01-7.832111847961D-09
    2.285809458380D-10 1.000000000000D+00 1.831000000000D+03 0.000000000000D+00
    2.000000000000D+00 0.000000000000D+00-1.490116119385D-08 1.200000000000D+01
    4.536000000000D+05 0.000000000000D+00
22 15 02 13 06 00  0.0 3.177388571203D-04 4.206412995700D-12 0.000000000000D+00
    4.300000000000D+01-7.312500000000D+00 5.415582648993D-09-2.139951077483D+00
   -4.861503839493D-07 7.469113683328D-03 7.670372724533D-06 5.153695941925D+03
    4.536000000000D+05 9.685754776001D-08 9.757522738959D-01-7.264316082001D-08
    9.229689197831D-01 2.110000000000D+02-2.066769653869D+00-8.273201679287D-09
   -2.342954719126D-10 1.000000000000D+00 1.831000000000D+03 0.000000000000D+00
    2.000000000000D+00 0.000000000000D+00-1.769512891769D-08 4.300000000000D+01
    4.536000000000D+05 0.000000000000D+00
32 15 02 13 06 00  0.0-2.248859964311D-04 9.094947017729D-12 0.000000000000D+00
    9.600000000000D+01-3.562500000000D+00 4.960563959600D-09 8.521041717762D-01
   -1.825392246246D-07 1.134002429899D-02 8.024275302887D-06 5.153573156357D+03
    4.536000000000D+05 1.769512891769D-07 1.074180714316D+00 2.458691596985D-07
    9.469876895870D-01 2.167187500000D+02 1.853295866926D-02-8.204270152135D-09
   -3.532290016039D-10 1.000000000000D+00 1.831000000000D+03 0.000000000000D+00
    2.000000000000D+00 0.000000000000D+00-3.725290298462D-09 9.600000000000D+01
    4.536000000000D+05 0.000000000000D+00
